0 FENGYUN 1C DEB
1 30806U 99025AUQ 13281.50913348  .00000401  00000-0  42563-3 0   922
2 30806 099.0776 147.6504 0279398 215.2188 265.8485 13.64081534329961
0 FENGYUN 1C DEB
1 30806U 99025AUQ 13285.47040633  .00000455  00000-0  47758-3 0   942
2 30806 099.0771 151.3562 0279397 204.8737 278.5330 13.64086408330502
0 FENGYUN 1C DEB
1 30806U 99025AUQ 13286.85128825  .00000549  00000-0  56759-3 0   951
2 30806 099.0769 152.6480 0279403 201.2668 219.6663 13.64087312330694
0 FENGYUN 1C DEB
1 30806U 99025AUQ 13288.47738606  .00000698  00000-0  71103-3 0   961
2 30806 099.0766 154.1693 0279419 197.0199 284.9950 13.64090065330910
0 FENGYUN 1C DEB
1 30806U 99025AUQ 13289.85873906  .00000603  00000-0  61904-3 0   972
2 30806 099.0764 155.4615 0279440 193.4123 228.4602 13.64092057331109
0 FENGYUN 1C DEB
1 30806U 99025AUQ 13291.41207324  .00000591  00000-0  60812-3 0   986
2 30806 099.0762 156.9145 0279466 189.3544 296.4926 13.64093889331311
0 FENGYUN 1C DEB
1 30806U 99025AUQ 13292.51104321  .00000630  00000-0  64505-3 0   999
2 30806 099.0762 157.9425 0279485 186.4853 293.2623 13.64095386331464
0 FENGYUN 1C DEB
1 30806U 99025AUQ 13294.41943638  .00000646  00000-0  66031-3 0  1008
2 30806 099.0763 159.7274 0279526 181.5012 304.9225 13.64097976331720
0 FENGYUN 1C DEB
1 30806U 99025AUQ 13295.44590427  .00000685  00000-0  69743-3 0  1013
2 30806 099.0764 160.6875 0279546 178.8229 305.6651 13.64099345331868
